SL-14 R/B               
1 21423U 91042B   25362.31382674  .00000592  00000+0  71940-4 0  9990
2 21423  82.4936 287.1200 0018477 113.4255 246.8904 14.81753819842503
ERS-1                   
1 21574U 91050A   25362.03011842  .00000448  00000+0  15810-3 0  9994
2 21574  98.7902  13.4671 0032836  56.0708 304.3593 14.39377158805420
ARIANE 40 R/B           
1 21610U 91050F   25362.11265890  .00000426  00000+0  14012-3 0  9997
2 21610  98.2145  51.9869 0002010 300.7319  59.3674 14.42826072808674
INTERCOSMOS 25          
1 21819U 91086A   25362.23940806  .00002120  00000+0  42211-3 0  9992
2 21819  82.6083 353.2002 1486243 270.9683  72.2047 12.11790286488030
SL-8 R/B                
1 21876U 92008B   25362.32316617  .00000150  00000+0  13847-3 0  9991
2 21876  82.9276 320.8552 0034193 336.3466 132.1380 13.75962530699605
SL-8 R/B                
1 21938U 92020B   25362.12784375  .00000180  00000+0  17073-3 0  9990
2 21938  82.9289 206.8903 0029832 135.8081 341.6904 13.75531384691295
USA 81                  
1 21949U 92023A   25361.98398468  .00000277  00000+0  95252-4 0  9995
2 21949  85.0082 172.7841 0001092  94.7317 265.4000 14.32332856 84526
COSMOS 2219             
1 22219U 92076A   25362.21652097  .00000424  00000+0  24731-3 0  9999
2 22219  71.0586 167.4792 0019576 305.5634  54.3663 14.14070681708278
SL-16 R/B               
1 22220U 92076B   25362.33047043 -.00000074  00000+0 -12822-4 0  9995
2 22220  71.0011 338.6894 0014028 213.2912 261.7438 14.16845931711727
COSMOS 2221             
1 22236U 92080A   25362.20394623  .00002673  00000+0  23655-3 0  9992
2 22236  82.5045 347.5225 0016306  74.7359 285.5664 14.95825175770108
SL-16 R/B               
1 22285U 92093B   25361.86765522 -.00000123  00000+0 -38452-4 0  9993
2 22285  71.0210 155.0395 0002667  25.3897 334.7357 14.15435235702997
COSMOS 2228             
1 22286U 92094A   25362.26697362  .00003439  00000+0  29727-3 0  9991
2 22286  82.5188 305.6776 0017854 176.6913 183.4431 14.96805110765373
