CCSDS_OMM_VERS = 2.0
CREATION_DATE  = 
ORIGINATOR     = 

OBJECT_NAME    = SL-14 R/B
OBJECT_ID      = 1991-042B
CENTER_NAME    = EARTH
REF_FRAME      = TEME
TIME_SYSTEM    = UTC
MEAN_ELEMENT_THEORY = SGP/SGP4

EPOCH          = 2025-12-28T07:31:54.630336
MEAN_MOTION    = 14.81753819
ECCENTRICITY   = .00184775
INCLINATION    = 82.4936
RA_OF_ASC_NODE = 287.1200
ARG_OF_PERICENTER = 113.4255
MEAN_ANOMALY   = 246.8904

EPHEMERIS_TYPE = 0
CLASSIFICATION_TYPE = U
NORAD_CAT_ID   = 21423
ELEMENT_SET_NO = 999
REV_AT_EPOCH   = 84250
BSTAR          = .71939977E-4
MEAN_MOTION_DOT = .592E-5
MEAN_MOTION_DDOT = 0

CCSDS_OMM_VERS = 2.0
CREATION_DATE  = 
ORIGINATOR     = 

OBJECT_NAME    = ERS-1
OBJECT_ID      = 1991-050A
CENTER_NAME    = EARTH
REF_FRAME      = TEME
TIME_SYSTEM    = UTC
MEAN_ELEMENT_THEORY = SGP/SGP4

EPOCH          = 2025-12-28T00:43:22.231488
MEAN_MOTION    = 14.39377158
ECCENTRICITY   = .00328361
INCLINATION    = 98.7902
RA_OF_ASC_NODE = 13.4671
ARG_OF_PERICENTER = 56.0708
MEAN_ANOMALY   = 304.3593

EPHEMERIS_TYPE = 0
CLASSIFICATION_TYPE = U
NORAD_CAT_ID   = 21574
ELEMENT_SET_NO = 999
REV_AT_EPOCH   = 80542
BSTAR          = .15809639E-3
MEAN_MOTION_DOT = .448E-5
MEAN_MOTION_DDOT = 0

CCSDS_OMM_VERS = 2.0
CREATION_DATE  = 
ORIGINATOR     = 

OBJECT_NAME    = ARIANE 40 R/B
OBJECT_ID      = 1991-050F
CENTER_NAME    = EARTH
REF_FRAME      = TEME
TIME_SYSTEM    = UTC
MEAN_ELEMENT_THEORY = SGP/SGP4

EPOCH          = 2025-12-28T02:42:13.728960
MEAN_MOTION    = 14.42826072
ECCENTRICITY   = .000201
INCLINATION    = 98.2145
RA_OF_ASC_NODE = 51.9869
ARG_OF_PERICENTER = 300.7319
MEAN_ANOMALY   = 59.3674

EPHEMERIS_TYPE = 0
CLASSIFICATION_TYPE = U
NORAD_CAT_ID   = 21610
ELEMENT_SET_NO = 999
REV_AT_EPOCH   = 80867
BSTAR          = .14011567E-3
MEAN_MOTION_DOT = .426E-5
MEAN_MOTION_DDOT = 0

CCSDS_OMM_VERS = 2.0
CREATION_DATE  = 
ORIGINATOR     = 

OBJECT_NAME    = INTERCOSMOS 25
OBJECT_ID      = 1991-086A
CENTER_NAME    = EARTH
REF_FRAME      = TEME
TIME_SYSTEM    = UTC
MEAN_ELEMENT_THEORY = SGP/SGP4

EPOCH          = 2025-12-28T05:44:44.856384
MEAN_MOTION    = 12.11790286
ECCENTRICITY   = .1486243
INCLINATION    = 82.6083
RA_OF_ASC_NODE = 353.2002
ARG_OF_PERICENTER = 270.9683
MEAN_ANOMALY   = 72.2047

EPHEMERIS_TYPE = 0
CLASSIFICATION_TYPE = U
NORAD_CAT_ID   = 21819
ELEMENT_SET_NO = 999
REV_AT_EPOCH   = 48803
BSTAR          = .42211446E-3
MEAN_MOTION_DOT = .212E-4
MEAN_MOTION_DDOT = 0

CCSDS_OMM_VERS = 2.0
CREATION_DATE  = 
ORIGINATOR     = 

OBJECT_NAME    = SL-8 R/B
OBJECT_ID      = 1992-008B
CENTER_NAME    = EARTH
REF_FRAME      = TEME
TIME_SYSTEM    = UTC
MEAN_ELEMENT_THEORY = SGP/SGP4

EPOCH          = 2025-12-28T07:45:21.557088
MEAN_MOTION    = 13.75962530
ECCENTRICITY   = .0034193
INCLINATION    = 82.9276
RA_OF_ASC_NODE = 320.8552
ARG_OF_PERICENTER = 336.3466
MEAN_ANOMALY   = 132.1380

EPHEMERIS_TYPE = 0
CLASSIFICATION_TYPE = U
NORAD_CAT_ID   = 21876
ELEMENT_SET_NO = 999
REV_AT_EPOCH   = 69960
BSTAR          = .13846929E-3
MEAN_MOTION_DOT = .15E-5
MEAN_MOTION_DDOT = 0

CCSDS_OMM_VERS = 2.0
CREATION_DATE  = 
ORIGINATOR     = 

OBJECT_NAME    = SL-8 R/B
OBJECT_ID      = 1992-020B
CENTER_NAME    = EARTH
REF_FRAME      = TEME
TIME_SYSTEM    = UTC
MEAN_ELEMENT_THEORY = SGP/SGP4

EPOCH          = 2025-12-28T03:04:05.700000
MEAN_MOTION    = 13.75531384
ECCENTRICITY   = .00298323
INCLINATION    = 82.9289
RA_OF_ASC_NODE = 206.8903
ARG_OF_PERICENTER = 135.8081
MEAN_ANOMALY   = 341.6904

EPHEMERIS_TYPE = 0
CLASSIFICATION_TYPE = U
NORAD_CAT_ID   = 21938
ELEMENT_SET_NO = 999
REV_AT_EPOCH   = 69129
BSTAR          = .17072753E-3
MEAN_MOTION_DOT = .18E-5
MEAN_MOTION_DDOT = 0

CCSDS_OMM_VERS = 2.0
CREATION_DATE  = 
ORIGINATOR     = 

OBJECT_NAME    = USA 81
OBJECT_ID      = 1992-023A
CENTER_NAME    = EARTH
REF_FRAME      = TEME
TIME_SYSTEM    = UTC
MEAN_ELEMENT_THEORY = SGP/SGP4

EPOCH          = 2025-12-27T23:36:56.276352
MEAN_MOTION    = 14.32332856
ECCENTRICITY   = .0001092
INCLINATION    = 85.0082
RA_OF_ASC_NODE = 172.7841
ARG_OF_PERICENTER = 94.7317
MEAN_ANOMALY   = 265.4000

EPHEMERIS_TYPE = 0
CLASSIFICATION_TYPE = U
NORAD_CAT_ID   = 21949
ELEMENT_SET_NO = 999
REV_AT_EPOCH   = 8452
BSTAR          = .95252104E-4
MEAN_MOTION_DOT = .277E-5
MEAN_MOTION_DDOT = 0

CCSDS_OMM_VERS = 2.0
CREATION_DATE  = 
ORIGINATOR     = 

OBJECT_NAME    = COSMOS 2219
OBJECT_ID      = 1992-076A
CENTER_NAME    = EARTH
REF_FRAME      = TEME
TIME_SYSTEM    = UTC
MEAN_ELEMENT_THEORY = SGP/SGP4

EPOCH          = 2025-12-28T05:11:47.411808
MEAN_MOTION    = 14.14070681
ECCENTRICITY   = .00195767
INCLINATION    = 71.0586
RA_OF_ASC_NODE = 167.4792
ARG_OF_PERICENTER = 305.5634
MEAN_ANOMALY   = 54.3663

EPHEMERIS_TYPE = 0
CLASSIFICATION_TYPE = U
NORAD_CAT_ID   = 22219
ELEMENT_SET_NO = 999
REV_AT_EPOCH   = 70827
BSTAR          = .24730526E-3
MEAN_MOTION_DOT = .424E-5
MEAN_MOTION_DDOT = 0

CCSDS_OMM_VERS = 2.0
CREATION_DATE  = 
ORIGINATOR     = 

OBJECT_NAME    = SL-16 R/B
OBJECT_ID      = 1992-076B
CENTER_NAME    = EARTH
REF_FRAME      = TEME
TIME_SYSTEM    = UTC
MEAN_ELEMENT_THEORY = SGP/SGP4

EPOCH          = 2025-12-28T07:55:52.645152
MEAN_MOTION    = 14.16845931
ECCENTRICITY   = .00140283
INCLINATION    = 71.0011
RA_OF_ASC_NODE = 338.6894
ARG_OF_PERICENTER = 213.2912
MEAN_ANOMALY   = 261.7438

EPHEMERIS_TYPE = 0
CLASSIFICATION_TYPE = U
NORAD_CAT_ID   = 22220
ELEMENT_SET_NO = 999
REV_AT_EPOCH   = 71172
BSTAR          = -.12821636E-4
MEAN_MOTION_DOT = -.74E-6
MEAN_MOTION_DDOT = 0

CCSDS_OMM_VERS = 2.0
CREATION_DATE  = 
ORIGINATOR     = 

OBJECT_NAME    = COSMOS 2221
OBJECT_ID      = 1992-080A
CENTER_NAME    = EARTH
REF_FRAME      = TEME
TIME_SYSTEM    = UTC
MEAN_ELEMENT_THEORY = SGP/SGP4

EPOCH          = 2025-12-28T04:53:40.954272
MEAN_MOTION    = 14.95825175
ECCENTRICITY   = .00163063
INCLINATION    = 82.5045
RA_OF_ASC_NODE = 347.5225
ARG_OF_PERICENTER = 74.7359
MEAN_ANOMALY   = 285.5664

EPHEMERIS_TYPE = 0
CLASSIFICATION_TYPE = U
NORAD_CAT_ID   = 22236
ELEMENT_SET_NO = 999
REV_AT_EPOCH   = 77010
BSTAR          = .23655314E-3
MEAN_MOTION_DOT = .2673E-4
MEAN_MOTION_DDOT = 0

CCSDS_OMM_VERS = 2.0
CREATION_DATE  = 
ORIGINATOR     = 

OBJECT_NAME    = SL-16 R/B
OBJECT_ID      = 1992-093B
CENTER_NAME    = EARTH
REF_FRAME      = TEME
TIME_SYSTEM    = UTC
MEAN_ELEMENT_THEORY = SGP/SGP4

EPOCH          = 2025-12-27T20:49:25.411008
MEAN_MOTION    = 14.15435235
ECCENTRICITY   = .00026675
INCLINATION    = 71.0210
RA_OF_ASC_NODE = 155.0395
ARG_OF_PERICENTER = 25.3897
MEAN_ANOMALY   = 334.7357

EPHEMERIS_TYPE = 0
CLASSIFICATION_TYPE = U
NORAD_CAT_ID   = 22285
ELEMENT_SET_NO = 999
REV_AT_EPOCH   = 70299
BSTAR          = -.38451863E-4
MEAN_MOTION_DOT = -.123E-5
MEAN_MOTION_DDOT = 0

CCSDS_OMM_VERS = 2.0
CREATION_DATE  = 
ORIGINATOR     = 

OBJECT_NAME    = COSMOS 2228
OBJECT_ID      = 1992-094A
CENTER_NAME    = EARTH
REF_FRAME      = TEME
TIME_SYSTEM    = UTC
MEAN_ELEMENT_THEORY = SGP/SGP4

EPOCH          = 2025-12-28T06:24:26.520768
MEAN_MOTION    = 14.96805110
ECCENTRICITY   = .00178549
INCLINATION    = 82.5188
RA_OF_ASC_NODE = 305.6776
ARG_OF_PERICENTER = 176.6913
MEAN_ANOMALY   = 183.4431

EPHEMERIS_TYPE = 0
CLASSIFICATION_TYPE = U
NORAD_CAT_ID   = 22286
ELEMENT_SET_NO = 999
REV_AT_EPOCH   = 76537
BSTAR          = .29726992E-3
MEAN_MOTION_DOT = .3439E-4
MEAN_MOTION_DDOT = 0

